{
  "type" : "FeatureCollection",
  "features" : [{"type":"Feature","id":0,"geometry":{"type":"Polygon","coordinates":[[[-98.853647964718689,34.983715968561874],[-98.855384948617015,34.87949021185252],[-98.85711758518238,34.775261665784356],[-98.858845890714292,34.671030677134894],[-98.860569881430919,34.566797592315751],[-98.862289573469539,34.46256275736858],[-98.86400498288711,34.358326517960691],[-98.865716125660626,34.254089219381044],[-98.867423017687827,34.149851206535807],[-98.838418107152521,34.150225051692829],[-98.809412940591116,34.150591967642463],[-98.780407522790128,34.150951954294179],[-98.75140185853634,34.151305011558932],[-98.72239595261675,34.151651139349489],[-98.693389809818598,34.15199033758033],[-98.664383434929363,34.152322606167687],[-98.635376832736767,34.152647945029408],[-98.606370008028719,34.152966354085123],[-98.577362965593395,34.153277833256162],[-98.548355710219184,34.153582382465558],[-98.519348246694648,34.153880001638029],[-98.490340579808574,34.15417069070012],[-98.461332714349979,34.154454449579895],[-98.432324655108019,34.154731278207308],[-98.403316406872108,34.155001176513935],[-98.374307974431773,34.155264144433126],[-98.345299362576782,34.155520181899817],[-98.31629057609706,34.155769288850813],[-98.287281619782718,34.156011465224516],[-98.25827249842402,34.156246710961106],[-98.22926321681139,34.156475026002489],[-98.200253779735434,34.156696410292213],[-98.171244191986887,34.156910863775565],[-98.14223445835664,34.15711838639956],[-98.113224583635727,34.157318978112947],[-98.084214572615366,34.157512638866116],[-98.055204430086803,34.157699368611247],[-98.026194160841541,34.157879167302184],[-97.997183769671139,34.158052034894503],[-97.968173261367255,34.158217971345479],[-97.939162640721733,34.1583769766141],[-97.939997163443948,34.364643681854588],[-97.940835809318656,34.570906246130534],[-97.941678608977384,34.777161993035939],[-97.942525593355825,34.983408240428581],[-97.970997714190872,34.983520310309132],[-97.999469909575666,34.983625770428553],[-98.027942174979927,34.983724620762182],[-98.056414505873221,34.983816861287004],[-98.08488689772507,34.983902491981553],[-98.113359346004913,34.983981512825821],[-98.141831846182228,34.98405392380144],[-98.170304393726298,34.984119724891556],[-98.198776984106473,34.984178916080801],[-98.227249612792065,34.98423149735536],[-98.255722275252268,34.98427746870307],[-98.284194966956306,34.984316830113166],[-98.312667683373363,34.984349581576446],[-98.341140419972561,34.98437572308535],[-98.369613172223069,34.984395254633696],[-98.398085935594011,34.984408176217073],[-98.42655870555447,34.984414487832339],[-98.45503147757357,34.984414189478123],[-98.483504247120422,34.984407281154454],[-98.511977009664093,34.984393762862901],[-98.540449760673766,34.984373634606719],[-98.56892249561848,34.984346896390477],[-98.597395209967445,34.984313548220484],[-98.625867899189771,34.984273590104529],[-98.654340558754654,34.984227022051876],[-98.682813184131291,34.984173844073375],[-98.711285770788948,34.984114056181461],[-98.739758314196905,34.984047658390011],[-98.768230809824459,34.983974650714565],[-98.79670325314099,34.983895033172104],[-98.825175639615907,34.983808805781173],[-98.853647964718689,34.983715968561874]]]},"properties":{"FID":0,"Id":0}}]
}