{
  "type": "FeatureCollection",
  "features": [
    {
      "type": "Feature",
      "geometry": {
        "bbox": [
          -92.56526157280213,
          35.86396492839499,
          -89.46723026378419,
          37.512766154638996
        ],
        "type": "Polygon",
        "coordinates": [
          [
            [
              -92.56526157280213,
              35.86396492839499
            ],
            [
              -92.56526157280213,
              37.512766154638996
            ],
            [
              -89.46723026378419,
              37.512766154638996
            ],
            [
              -89.46723026378419,
              35.86396492839499
            ],
            [
              -92.56526157280213,
              35.86396492839499
            ]
          ]
        ]
      },
      "properties": {
        "id": 1
      }
    }
  ]
}